{
    "links": {
        "self": "http://www.neowsapp.com/rest/v1/neo/3744851?api_key=iIulBulltgU6a56xZRHN4H3l9WmuAYTsLGpBGhQ2"
    },
    "id": "3744851",
    "neo_reference_id": "3744851",
    "name": "(2016 DN2)",
    "designation": "2016 DN2",
    "nasa_jpl_url": "http://ssd.jpl.nasa.gov/sbdb.cgi?sstr=3744851",
    "absolute_magnitude_h": 26.9,
    "estimated_diameter": {
        "kilometers": {
            "estimated_diameter_min": 0.0110803882,
            "estimated_diameter_max": 0.0247765013
        },
        "meters": {
            "estimated_diameter_min": 11.0803882126,
            "estimated_diameter_max": 24.7765012606
        },
        "miles": {
            "estimated_diameter_min": 0.0068850319,
            "estimated_diameter_max": 0.0153953994
        },
        "feet": {
            "estimated_diameter_min": 36.3529808636,
            "estimated_diameter_max": 81.2877363957
        }
    },
    "is_potentially_hazardous_asteroid": false,
    "close_approach_data": [
        {
            "close_approach_date": "1979-06-15",
            "close_approach_date_full": "1979-Jun-15 07:55",
            "epoch_date_close_approach": 298281300000,
            "relative_velocity": {
                "kilometers_per_second": "22.4339605572",
                "kilometers_per_hour": "80762.2580057836",
                "miles_per_hour": "50182.5263703159"
            },
            "miss_distance": {
                "astronomical": "0.4662312686",
                "lunar": "181.3639634854",
                "kilometers": "69747204.709957882",
                "miles": "43338903.3551154916"
            },
            "orbiting_body": "Earth"
        },
        {
            "close_approach_date": "2008-06-08",
            "close_approach_date_full": "2008-Jun-08 04:37",
            "epoch_date_close_approach": 1212899820000,
            "relative_velocity": {
                "kilometers_per_second": "19.0478301509",
                "kilometers_per_hour": "68572.188543069",
                "miles_per_hour": "42608.091264442"
            },
            "miss_distance": {
                "astronomical": "0.3515154787",
                "lunar": "136.7395212143",
                "kilometers": "52585966.885550369",
                "miles": "32675404.6440343322"
            },
            "orbiting_body": "Earth"
        },
        {
            "close_approach_date": "2016-03-05",
            "close_approach_date_full": "2016-Mar-05 13:48",
            "epoch_date_close_approach": 1457185680000,
            "relative_velocity": {
                "kilometers_per_second": "8.9908061229",
                "kilometers_per_hour": "32366.9020425502",
                "miles_per_hour": "20111.5342163835"
            },
            "miss_distance": {
                "astronomical": "0.0046777859",
                "lunar": "1.8196587151",
                "kilometers": "699786.806956033",
                "miles": "434827.3586299354"
            },
            "orbiting_body": "Earth"
        },
        {
            "close_approach_date": "2016-03-06",
            "close_approach_date_full": "2016-Mar-06 00:47",
            "epoch_date_close_approach": 1457225220000,
            "relative_velocity": {
                "kilometers_per_second": "9.1579370655",
                "kilometers_per_hour": "32968.5734357992",
                "miles_per_hour": "20485.3894218165"
            },
            "miss_distance": {
                "astronomical": "0.0052741085",
                "lunar": "2.0516282065",
                "kilometers": "788995.397748895",
                "miles": "490259.006548951"
            },
            "orbiting_body": "Moon"
        },
        {
            "close_approach_date": "2024-01-30",
            "close_approach_date_full": "2024-Jan-30 07:52",
            "epoch_date_close_approach": 1706601120000,
            "relative_velocity": {
                "kilometers_per_second": "21.7883640056",
                "kilometers_per_hour": "78438.1104202061",
                "miles_per_hour": "48738.3914441553"
            },
            "miss_distance": {
                "astronomical": "0.4242164491",
                "lunar": "165.0201986999",
                "kilometers": "63461877.204323417",
                "miles": "39433381.9445484746"
            },
            "orbiting_body": "Earth"
        }
    ],
    "orbital_data": {
        "orbit_id": "8",
        "orbit_determination_date": "2017-04-06 08:28:01",
        "first_observation_date": "2016-02-28",
        "last_observation_date": "2016-03-06",
        "data_arc_in_days": 7,
        "observations_used": 55,
        "orbit_uncertainty": "7",
        "minimum_orbit_intersection": ".00474402",
        "jupiter_tisserand_invariant": "3.769",
        "epoch_osculation": "2459000.5",
        "eccentricity": ".5003615622764457",
        "semi_major_axis": "1.911147460531301",
        "inclination": "4.28368748948971",
        "ascending_node_longitude": "161.6677107415792",
        "orbital_period": "965.0275754844487",
        "perihelion_distance": ".9548827314391977",
        "perihelion_argument": "31.48777165694268",
        "aphelion_distance": "2.867412189623405",
        "perihelion_time": "2459405.529656573596",
        "mean_anomaly": "208.9051711363824",
        "mean_motion": ".3730463347840379",
        "equinox": "J2000",
        "orbit_class": {
            "orbit_class_type": "APO",
            "orbit_class_description": "Near-Earth asteroid orbits which cross the Earth’s orbit similar to that of 1862 Apollo",
            "orbit_class_range": "a (semi-major axis) > 1.0 AU; q (perihelion) < 1.017 AU"
        }
    },
    "is_sentry_object": false
}